[
  {
    "OBJECT_NAME": "TRANSPORTER-16 OBJECT BC",
    "OBJECT_ID": "2026-067BC",
    "EPOCH": "2026-04-17T20:13:16.883328",
    "MEAN_MOTION": 15.16762425,
    "ECCENTRICITY": 0.00043088,
    "INCLINATION": 97.4446,
    "RA_OF_ASC_NODE": 67.1649,
    "ARG_OF_PERICENTER": 300.9886,
    "MEAN_ANOMALY": 59.0924,
    "EPHEMERIS_TYPE": 0,
    "CLASSIFICATION_TYPE": "U",
    "NORAD_CAT_ID": 68466,
    "ELEMENT_SET_NO": 999,
    "REV_AT_EPOCH": 263,
    "BSTAR": 0.000263164,
    "MEAN_MOTION_DOT": 5.1e-05,
    "MEAN_MOTION_DDOT": 0
  },
  {
    "OBJECT_NAME": "TRANSPORTER-16 OBJECT BD",
    "OBJECT_ID": "2026-067BD",
    "EPOCH": "2026-04-17T20:09:39.139776",
    "MEAN_MOTION": 15.17124836,
    "ECCENTRICITY": 0.00042474,
    "INCLINATION": 97.4378,
    "RA_OF_ASC_NODE": 67.1558,
    "ARG_OF_PERICENTER": 295.3984,
    "MEAN_ANOMALY": 64.681,
    "EPHEMERIS_TYPE": 0,
    "CLASSIFICATION_TYPE": "U",
    "NORAD_CAT_ID": 68467,
    "ELEMENT_SET_NO": 999,
    "REV_AT_EPOCH": 278,
    "BSTAR": 0.00058474966,
    "MEAN_MOTION_DOT": 0.00011541,
    "MEAN_MOTION_DDOT": 0
  },
  {
    "OBJECT_NAME": "ERMIS-1",
    "OBJECT_ID": "2026-067BE",
    "EPOCH": "2026-04-18T15:14:39.914016",
    "MEAN_MOTION": 15.1672519,
    "ECCENTRICITY": 0.00046803,
    "INCLINATION": 97.4522,
    "RA_OF_ASC_NODE": 67.9588,
    "ARG_OF_PERICENTER": 263.2357,
    "MEAN_ANOMALY": 96.8344,
    "EPHEMERIS_TYPE": 0,
    "CLASSIFICATION_TYPE": "U",
    "NORAD_CAT_ID": 68468,
    "ELEMENT_SET_NO": 999,
    "REV_AT_EPOCH": 290,
    "BSTAR": 0.00040183658,
    "MEAN_MOTION_DOT": 7.816e-05,
    "MEAN_MOTION_DDOT": 0
  },
  {
    "OBJECT_NAME": "TRANSPORTER-16 OBJECT BF",
    "OBJECT_ID": "2026-067BF",
    "EPOCH": "2026-04-17T20:02:59.079264",
    "MEAN_MOTION": 15.17298933,
    "ECCENTRICITY": 0.00015878,
    "INCLINATION": 97.45,
    "RA_OF_ASC_NODE": 67.188,
    "ARG_OF_PERICENTER": 293.4135,
    "MEAN_ANOMALY": 66.6931,
    "EPHEMERIS_TYPE": 0,
    "CLASSIFICATION_TYPE": "U",
    "NORAD_CAT_ID": 68469,
    "ELEMENT_SET_NO": 999,
    "REV_AT_EPOCH": 278,
    "BSTAR": 0.00011051144,
    "MEAN_MOTION_DOT": 2.135e-05,
    "MEAN_MOTION_DDOT": 0
  },
  {
    "OBJECT_NAME": "TRANSPORTER-16 OBJECT BG",
    "OBJECT_ID": "2026-067BG",
    "EPOCH": "2026-04-18T15:15:21.970944",
    "MEAN_MOTION": 15.16679584,
    "ECCENTRICITY": 0.00049481,
    "INCLINATION": 97.4442,
    "RA_OF_ASC_NODE": 67.9404,
    "ARG_OF_PERICENTER": 280.0395,
    "MEAN_ANOMALY": 80.028,
    "EPHEMERIS_TYPE": 0,
    "CLASSIFICATION_TYPE": "U",
    "NORAD_CAT_ID": 68470,
    "ELEMENT_SET_NO": 999,
    "REV_AT_EPOCH": 290,
    "BSTAR": 0.00035985518,
    "MEAN_MOTION_DOT": 6.983e-05,
    "MEAN_MOTION_DDOT": 0
  },
  {
    "OBJECT_NAME": "TRANSPORTER-16 OBJECT BH",
    "OBJECT_ID": "2026-067BH",
    "EPOCH": "2026-04-17T19:44:26.622240",
    "MEAN_MOTION": 14.90974072,
    "ECCENTRICITY": 0.00021266,
    "INCLINATION": 97.754,
    "RA_OF_ASC_NODE": 67.0038,
    "ARG_OF_PERICENTER": 242.167,
    "MEAN_ANOMALY": 117.9333,
    "EPHEMERIS_TYPE": 0,
    "CLASSIFICATION_TYPE": "U",
    "NORAD_CAT_ID": 68471,
    "ELEMENT_SET_NO": 999,
    "REV_AT_EPOCH": 273,
    "BSTAR": 0.00024546638,
    "MEAN_MOTION_DOT": 2.37e-05,
    "MEAN_MOTION_DDOT": 0
  },
  {
    "OBJECT_NAME": "TRANSPORTER-16 OBJECT BJ",
    "OBJECT_ID": "2026-067BJ",
    "EPOCH": "2026-04-17T19:46:11.322624",
    "MEAN_MOTION": 14.90852493,
    "ECCENTRICITY": 0.00030273,
    "INCLINATION": 97.7587,
    "RA_OF_ASC_NODE": 67.0099,
    "ARG_OF_PERICENTER": 225.1638,
    "MEAN_ANOMALY": 134.9335,
    "EPHEMERIS_TYPE": 0,
    "CLASSIFICATION_TYPE": "U",
    "NORAD_CAT_ID": 68472,
    "ELEMENT_SET_NO": 999,
    "REV_AT_EPOCH": 273,
    "BSTAR": 0.00010739281,
    "MEAN_MOTION_DOT": 1.002e-05,
    "MEAN_MOTION_DDOT": 0
  },
  {
    "OBJECT_NAME": "TRANSPORTER-16 OBJECT BK",
    "OBJECT_ID": "2026-067BK",
    "EPOCH": "2026-04-17T23:03:29.341728",
    "MEAN_MOTION": 15.1791548,
    "ECCENTRICITY": 0.00010079,
    "INCLINATION": 97.4502,
    "RA_OF_ASC_NODE": 67.3256,
    "ARG_OF_PERICENTER": 177.6157,
    "MEAN_ANOMALY": 182.5082,
    "EPHEMERIS_TYPE": 0,
    "CLASSIFICATION_TYPE": "U",
    "NORAD_CAT_ID": 68473,
    "ELEMENT_SET_NO": 999,
    "REV_AT_EPOCH": 278,
    "BSTAR": 0.00033335228,
    "MEAN_MOTION_DOT": 6.696e-05,
    "MEAN_MOTION_DDOT": 0
  },
  {
    "OBJECT_NAME": "TRANSPORTER-16 OBJECT BL",
    "OBJECT_ID": "2026-067BL",
    "EPOCH": "2026-04-17T20:57:32.120352",
    "MEAN_MOTION": 14.92297569,
    "ECCENTRICITY": 0.00038986,
    "INCLINATION": 97.7508,
    "RA_OF_ASC_NODE": 67.0862,
    "ARG_OF_PERICENTER": 85.7542,
    "MEAN_ANOMALY": 274.4122,
    "EPHEMERIS_TYPE": 0,
    "CLASSIFICATION_TYPE": "U",
    "NORAD_CAT_ID": 68474,
    "ELEMENT_SET_NO": 999,
    "REV_AT_EPOCH": 273,
    "BSTAR": 0.00018220291,
    "MEAN_MOTION_DOT": 1.805e-05,
    "MEAN_MOTION_DDOT": 0
  },
  {
    "OBJECT_NAME": "TRANSPORTER-16 OBJECT BM",
    "OBJECT_ID": "2026-067BM",
    "EPOCH": "2026-04-17T19:44:11.372640",
    "MEAN_MOTION": 14.91058955,
    "ECCENTRICITY": 0.00018695,
    "INCLINATION": 97.7486,
    "RA_OF_ASC_NODE": 66.9963,
    "ARG_OF_PERICENTER": 260.1135,
    "MEAN_ANOMALY": 99.9872,
    "EPHEMERIS_TYPE": 0,
    "CLASSIFICATION_TYPE": "U",
    "NORAD_CAT_ID": 68475,
    "ELEMENT_SET_NO": 999,
    "REV_AT_EPOCH": 220,
    "BSTAR": 0.00058145203,
    "MEAN_MOTION_DOT": 5.704e-05,
    "MEAN_MOTION_DDOT": 0
  },
  {
    "OBJECT_NAME": "TRANSPORTER-16 OBJECT BN",
    "OBJECT_ID": "2026-067BN",
    "EPOCH": "2026-04-17T19:21:22.606560",
    "MEAN_MOTION": 14.92286781,
    "ECCENTRICITY": 0.00039217,
    "INCLINATION": 97.7523,
    "RA_OF_ASC_NODE": 67.0217,
    "ARG_OF_PERICENTER": 96.8803,
    "MEAN_ANOMALY": 263.2862,
    "EPHEMERIS_TYPE": 0,
    "CLASSIFICATION_TYPE": "U",
    "NORAD_CAT_ID": 68476,
    "ELEMENT_SET_NO": 999,
    "REV_AT_EPOCH": 272,
    "BSTAR": 0.00019987244,
    "MEAN_MOTION_DOT": 1.985e-05,
    "MEAN_MOTION_DDOT": 0
  },
  {
    "OBJECT_NAME": "TRANSPORTER-16 OBJECT BP",
    "OBJECT_ID": "2026-067BP",
    "EPOCH": "2026-04-17T19:44:03.228576",
    "MEAN_MOTION": 14.91045635,
    "ECCENTRICITY": 0.0002329,
    "INCLINATION": 97.7492,
    "RA_OF_ASC_NODE": 66.9968,
    "ARG_OF_PERICENTER": 257.2172,
    "MEAN_ANOMALY": 102.8786,
    "EPHEMERIS_TYPE": 0,
    "CLASSIFICATION_TYPE": "U",
    "NORAD_CAT_ID": 68477,
    "ELEMENT_SET_NO": 999,
    "REV_AT_EPOCH": 213,
    "BSTAR": 0.00046026462,
    "MEAN_MOTION_DOT": 4.501e-05,
    "MEAN_MOTION_DDOT": 0
  },
  {
    "OBJECT_NAME": "TRANSPORTER-16 OBJECT BQ",
    "OBJECT_ID": "2026-067BQ",
    "EPOCH": "2026-04-17T21:01:44.296032",
    "MEAN_MOTION": 14.92025453,
    "ECCENTRICITY": 0.00033389,
    "INCLINATION": 97.7556,
    "RA_OF_ASC_NODE": 67.0899,
    "ARG_OF_PERICENTER": 107.1775,
    "MEAN_ANOMALY": 252.981,
    "EPHEMERIS_TYPE": 0,
    "CLASSIFICATION_TYPE": "U",
    "NORAD_CAT_ID": 68478,
    "ELEMENT_SET_NO": 999,
    "REV_AT_EPOCH": 273,
    "BSTAR": 3.6504154e-05,
    "MEAN_MOTION_DOT": 3.15e-06,
    "MEAN_MOTION_DDOT": 0
  },
  {
    "OBJECT_NAME": "TRANSPORTER-16 OBJECT BR",
    "OBJECT_ID": "2026-067BR",
    "EPOCH": "2026-04-17T19:24:39.636576",
    "MEAN_MOTION": 14.92098051,
    "ECCENTRICITY": 0.00031058,
    "INCLINATION": 97.751,
    "RA_OF_ASC_NODE": 67.0165,
    "ARG_OF_PERICENTER": 92.878,
    "MEAN_ANOMALY": 267.2794,
    "EPHEMERIS_TYPE": 0,
    "CLASSIFICATION_TYPE": "U",
    "NORAD_CAT_ID": 68479,
    "ELEMENT_SET_NO": 999,
    "REV_AT_EPOCH": 272,
    "BSTAR": 0.00021163488,
    "MEAN_MOTION_DOT": 2.095e-05,
    "MEAN_MOTION_DDOT": 0
  }
]