TRANSPORTER-16 OBJECT BC
1 68466U 26067BC  26107.84255652  .00005100  00000+0  26316-3 0  9990
2 68466  97.4446  67.1649 0004308 300.9886  59.0924 15.16762425  2637
TRANSPORTER-16 OBJECT BD
1 68467U 26067BD  26107.84003634  .00011541  00000+0  58475-3 0  9999
2 68467  97.4378  67.1558 0004247 295.3984  64.6810 15.17124836  2780
ERMIS-1                 
1 68468U 26067BE  26108.63518419  .00007816  00000+0  40184-3 0  9998
2 68468  97.4522  67.9588 0004680 263.2357  96.8344 15.16725190  2904
TRANSPORTER-16 OBJECT BF
1 68469U 26067BF  26107.83540601  .00002135  00000+0  11051-3 0  9998
2 68469  97.4500  67.1880 0001587 293.4135  66.6931 15.17298933  2784
TRANSPORTER-16 OBJECT BG
1 68470U 26067BG  26108.63567096  .00006983  00000+0  35986-3 0  9994
2 68470  97.4442  67.9404 0004948 280.0395  80.0280 15.16679584  2900
TRANSPORTER-16 OBJECT BH
1 68471U 26067BH  26107.82253035  .00002370  00000+0  24547-3 0  9997
2 68471  97.7540  67.0038 0002126 242.1670 117.9333 14.90974072  2739
TRANSPORTER-16 OBJECT BJ
1 68472U 26067BJ  26107.82374216  .00001002  00000+0  10739-3 0  9992
2 68472  97.7587  67.0099 0003027 225.1638 134.9335 14.90852493  2737
TRANSPORTER-16 OBJECT BK
1 68473U 26067BK  26107.96075627  .00006696  00000+0  33335-3 0  9993
2 68473  97.4502  67.3256 0001007 177.6157 182.5082 15.17915480  2782
TRANSPORTER-16 OBJECT BL
1 68474U 26067BL  26107.87328843  .00001805  00000+0  18220-3 0  9998
2 68474  97.7508  67.0862 0003898  85.7542 274.4122 14.92297569  2733
TRANSPORTER-16 OBJECT BM
1 68475U 26067BM  26107.82235385  .00005704  00000+0  58145-3 0  9994
2 68475  97.7486  66.9963 0001869 260.1135  99.9872 14.91058955  2209
TRANSPORTER-16 OBJECT BN
1 68476U 26067BN  26107.80651165  .00001985  00000+0  19987-3 0  9999
2 68476  97.7523  67.0217 0003921  96.8803 263.2862 14.92286781  2726
TRANSPORTER-16 OBJECT BP
1 68477U 26067BP  26107.82225959  .00004501  00000+0  46026-3 0  9991
2 68477  97.7492  66.9968 0002329 257.2172 102.8786 14.91045635  2134
TRANSPORTER-16 OBJECT BQ
1 68478U 26067BQ  26107.87620713  .00000315  00000+0  36504-4 0  9994
2 68478  97.7556  67.0899 0003338 107.1775 252.9810 14.92025453  2732
TRANSPORTER-16 OBJECT BR
1 68479U 26067BR  26107.80879209  .00002095  00000+0  21163-3 0  9995
2 68479  97.7510  67.0165 0003105  92.8780 267.2794 14.92098051  2720
